start=new Date('2022-04-12T00:00:00.000Z').valueOf();
sats=[{"EPOCH":"2022-04-11T12:17:35.318976","ARG_OF_PERICENTER":"60.8270","OBJECT_ID":"2020-006AS","MEAN_ELEMENT_THEORY":"SGP4","PERIOD":"95.593","MEAN_MOTION":"15.06385298","APOAPSIS":"548.485","ECCENTRICITY":"0.00017710","TLE_LINE2":"2 45084  53.0540 177.9593 0001771  60.8270 299.2896 15.06385298122210","LAUNCH_DATE":"2020-01-29","REV_AT_EPOCH":"12221","OBJECT_NAME":"STARLINK-1173","RCS_SIZE":"LARGE","MEAN_MOTION_DOT":"0.00000241","CLASSIFICATION_TYPE":"U","TLE_LINE1":"1 45084U 20006AS  22101.51221434  .00000241  00000-0  35073-4 0  9996","SITE":"AFETR","REF_FRAME":"TEME","GP_ID":"200983507","CENTER_NAME":"EARTH","FILE":"3397378","DECAY_DATE":null,"COUNTRY_CODE":"US","INCLINATION":"53.0540","MEAN_ANOMALY":"299.2896","PERIAPSIS":"546.032","SEMIMAJOR_AXIS":"6925.394","MEAN_MOTION_DDOT":"0.0000000000000","NORAD_CAT_ID":"45084","TIME_SYSTEM":"UTC","ELEMENT_SET_NO":"999","BSTAR":"0.00003507300000","OBJECT_TYPE":"PAYLOAD","EPHEMERIS_TYPE":"0","RA_OF_ASC_NODE":"177.9593"},{"SITE":"AFETR","REF_FRAME":"TEME","TLE_LINE1":"1 45085U 20006AT  22101.50852104  .00000031  00000-0  20961-4 0  9997","GP_ID":"200982274","CENTER_NAME":"EARTH","COUNTRY_CODE":"US","INCLINATION":"53.0536","MEAN_ANOMALY":"307.2795","FILE":"3397378","DECAY_DATE":null,"SEMIMAJOR_AXIS":"6925.373","PERIAPSIS":"546.116","NORAD_CAT_ID":"45085","MEAN_MOTION_DDOT":"0.0000000000000","TIME_SYSTEM":"UTC","ELEMENT_SET_NO":"999","OBJECT_TYPE":"PAYLOAD","EPHEMERIS_TYPE":"0","BSTAR":"0.00002096100000","RA_OF_ASC_NODE":"177.9627","EPOCH":"2022-04-11T12:12:16.217856","MEAN_MOTION":"15.06391980","OBJECT_ID":"2020-006AT","ARG_OF_PERICENTER":"52.8341","MEAN_ELEMENT_THEORY":"SGP4","PERIOD":"95.593","TLE_LINE2":"2 45085  53.0536 177.9627 0001620  52.8341 307.2795 15.06391980121769","APOAPSIS":"548.360","ECCENTRICITY":"0.00016200","LAUNCH_DATE":"2020-01-29","OBJECT_NAME":"STARLINK-1179","RCS_SIZE":"LARGE","REV_AT_EPOCH":"12176","MEAN_MOTION_DOT":"0.00000031","CLASSIFICATION_TYPE":"U"},{"MEAN_MOTION_DOT":"0.00012242","CLASSIFICATION_TYPE":"U","REV_AT_EPOCH":"12174","OBJECT_NAME":"STARLINK-1181","RCS_SIZE":"LARGE","LAUNCH_DATE":"2020-01-29","APOAPSIS":"529.732","ECCENTRICITY":"0.00015440","TLE_LINE2":"2 45086  53.0005 171.5237 0001544   8.6550 351.4467 15.12472002121741","ARG_OF_PERICENTER":"8.6550","OBJECT_ID":"2020-006AU","MEAN_ELEMENT_THEORY":"SGP4","PERIOD":"95.208","MEAN_MOTION":"15.12472002","EPOCH":"2022-04-11T13:34:36.474816","RA_OF_ASC_NODE":"171.5237","BSTAR":"0.00071141000000","OBJECT_TYPE":"PAYLOAD","EPHEMERIS_TYPE":"0","MEAN_MOTION_DDOT":"0.0000000000000","NORAD_CAT_ID":"45086","TIME_SYSTEM":"UTC","ELEMENT_SET_NO":"999","SEMIMAJOR_AXIS":"6906.801","PERIAPSIS":"527.600","FILE":"3397723","DECAY_DATE":null,"COUNTRY_CODE":"US","MEAN_ANOMALY":"351.4467","INCLINATION":"53.0005","GP_ID":"201014590","CENTER_NAME":"EARTH","TLE_LINE1":"1 45086U 20006AU  22101.56569994  .00012242  00000-0  71141-3 0  9998","SITE":"AFETR","REF_FRAME":"TEME"},{"REF_FRAME":"TEME","SITE":"AFETR","TLE_LINE1":"1 45087U 20006AV  22101.49377007 -.00009561  00000-0 -62389-3 0  9999","CENTER_NAME":"EARTH","GP_ID":"200983276","INCLINATION":"53.0526","MEAN_ANOMALY":"294.6137","COUNTRY_CODE":"US","DECAY_DATE":null,"FILE":"3397378","PERIAPSIS":"546.225","SEMIMAJOR_AXIS":"6925.355","TIME_SYSTEM":"UTC","ELEMENT_SET_NO":"999","MEAN_MOTION_DDOT":"0.0000000000000","NORAD_CAT_ID":"45087","EPHEMERIS_TYPE":"0","OBJECT_TYPE":"PAYLOAD","BSTAR":"-0.00062389000000","RA_OF_ASC_NODE":"178.0290","EPOCH":"2022-04-11T11:51:01.734048","MEAN_MOTION":"15.06397755","PERIOD":"95.592","MEAN_ELEMENT_THEORY":"SGP4","ARG_OF_PERICENTER":"65.5002","OBJECT_ID":"2020-006AV","TLE_LINE2":"2 45087  53.0526 178.0290 0001437  65.5002 294.6137 15.06397755122215","ECCENTRICITY":"0.00014370","APOAPSIS":"548.216","LAUNCH_DATE":"2020-01-29","RCS_SIZE":"LARGE","OBJECT_NAME":"STARLINK-1185","REV_AT_EPOCH":"12221","CLASSIFICATION_TYPE":"U","MEAN_MOTION_DOT":"-0.00009561"},{"PERIAPSIS":"546.142","SEMIMAJOR_AXIS":"6925.385","INCLINATION":"53.0521","MEAN_ANOMALY":"298.4923","COUNTRY_CODE":"US","DECAY_DATE":null,"FILE":"3397378","GP_ID":"200983008","CENTER_NAME":"EARTH","REF_FRAME":"TEME","SITE":"AFETR","TLE_LINE1":"1 45088U 20006AW  22101.51589135 -.00000638  00000-0 -23972-4 0  9992","RA_OF_ASC_NODE":"177.9451","EPHEMERIS_TYPE":"0","OBJECT_TYPE":"PAYLOAD","BSTAR":"-0.00002397200000","ELEMENT_SET_NO":"999","TIME_SYSTEM":"UTC","NORAD_CAT_ID":"45088","MEAN_MOTION_DDOT":"0.0000000000000","TLE_LINE2":"2 45088  53.0521 177.9451 0001599  61.6227 298.4923 15.06388210121763","ECCENTRICITY":"0.00015990","APOAPSIS":"548.357","MEAN_MOTION":"15.06388210","PERIOD":"95.593","MEAN_ELEMENT_THEORY":"SGP4","ARG_OF_PERICENTER":"61.6227","OBJECT_ID":"2020-006AW","EPOCH":"2022-04-11T12:22:53.012640","CLASSIFICATION_TYPE":"U","MEAN_MOTION_DOT":"-0.00000638","RCS_SIZE":"LARGE","OBJECT_NAME":"STARLINK-1183","REV_AT_EPOCH":"12176","LAUNCH_DATE":"2020-01-29"},{"BSTAR":"0.00004757800000","EPHEMERIS_TYPE":"0","OBJECT_TYPE":"PAYLOAD","ELEMENT_SET_NO":"999","TIME_SYSTEM":"UTC","MEAN_MOTION_DDOT":"0.0000000000000","NORAD_CAT_ID":"45089","RA_OF_ASC_NODE":"177.6475","CENTER_NAME":"EARTH","GP_ID":"201013841","TLE_LINE1":"1 45089U 20006AX  22101.58130117  .00000427  00000-0  47578-4 0  9994","REF_FRAME":"TEME","SITE":"AFETR","PERIAPSIS":"546.206","SEMIMAJOR_AXIS":"6925.372","DECAY_DATE":null,"FILE":"3397723","MEAN_ANOMALY":"283.1279","INCLINATION":"53.0590","COUNTRY_CODE":"US","REV_AT_EPOCH":"12178","RCS_SIZE":"LARGE","OBJECT_NAME":"STARLINK-1136","LAUNCH_DATE":"2020-01-29","CLASSIFICATION_TYPE":"U","MEAN_MOTION_DOT":"0.00000427","EPOCH":"2022-04-11T13:57:04.421088","ECCENTRICITY":"0.00014890","APOAPSIS":"548.268","TLE_LINE2":"2 45089  53.0590 177.6475 0001489  76.9876 283.1279 15.06392436121782","MEAN_ELEMENT_THEORY":"SGP4","PERIOD":"95.593","OBJECT_ID":"2020-006AX","ARG_OF_PERICENTER":"76.9876","MEAN_MOTION":"15.06392436"},{"SEMIMAJOR_AXIS":"6925.372","PERIAPSIS":"546.140","INCLINATION":"53.0543","MEAN_ANOMALY":"288.8825","COUNTRY_CODE":"US","DECAY_DATE":null,"FILE":"3397723","CENTER_NAME":"EARTH","GP_ID":"201014091","REF_FRAME":"TEME","SITE":"AFETR","TLE_LINE1":"1 45090U 20006AY  22101.56749870 -.00000329  00000-0 -31555-5 0  9998","RA_OF_ASC_NODE":"177.7073","EPHEMERIS_TYPE":"0","OBJECT_TYPE":"PAYLOAD","BSTAR":"-0.00000315550000","TIME_SYSTEM":"UTC","ELEMENT_SET_NO":"999","NORAD_CAT_ID":"45090","MEAN_MOTION_DDOT":"0.0000000000000","TLE_LINE2":"2 45090  53.0543 177.7073 0001584  71.2336 288.8825 15.06392362121778","ECCENTRICITY":"0.00015840","APOAPSIS":"548.334","MEAN_MOTION":"15.06392362","PERIOD":"95.593","MEAN_ELEMENT_THEORY":"SGP4","OBJECT_ID":"2020-006AY","ARG_OF_PERICENTER":"71.2336","EPOCH":"2022-04-11T13:37:11.887680","CLASSIFICATION_TYPE":"U","MEAN_MOTION_DOT":"-0.00000329","RCS_SIZE":"LARGE","OBJECT_NAME":"STARLINK-1176","REV_AT_EPOCH":"12177","LAUNCH_DATE":"2020-01-29"},{"TLE_LINE1":"1 45092U 20006BA  22101.47534712  .00006563  00000-0  45900-3 0  9998","REF_FRAME":"TEME","SITE":"AFETR","CENTER_NAME":"EARTH","GP_ID":"200982777","DECAY_DATE":null,"FILE":"3397378","INCLINATION":"53.0549","MEAN_ANOMALY":"303.5144","COUNTRY_CODE":"US","SEMIMAJOR_AXIS":"6925.333","PERIAPSIS":"545.940","ELEMENT_SET_NO":"999","TIME_SYSTEM":"UTC","NORAD_CAT_ID":"45092","MEAN_MOTION_DDOT":"0.0000000000000","BSTAR":"0.00045900000000","EPHEMERIS_TYPE":"0","OBJECT_TYPE":"PAYLOAD","RA_OF_ASC_NODE":"178.1304","EPOCH":"2022-04-11T11:24:29.991168","PERIOD":"95.592","MEAN_ELEMENT_THEORY":"SGP4","OBJECT_ID":"2020-006BA","ARG_OF_PERICENTER":"56.6018","MEAN_MOTION":"15.06404945","ECCENTRICITY":"0.00018170","APOAPSIS":"548.457","TLE_LINE2":"2 45092  53.0549 178.1304 0001817  56.6018 303.5144 15.06404945121759","LAUNCH_DATE":"2020-01-29","REV_AT_EPOCH":"12175","RCS_SIZE":"LARGE","OBJECT_NAME":"STARLINK-1137","CLASSIFICATION_TYPE":"U","MEAN_MOTION_DOT":"0.00006563"},{"RA_OF_ASC_NODE":"177.2483","OBJECT_TYPE":"PAYLOAD","EPHEMERIS_TYPE":"0","BSTAR":"0.00018790000000","MEAN_MOTION_DDOT":"0.0000000000000","NORAD_CAT_ID":"45093","ELEMENT_SET_NO":"999","TIME_SYSTEM":"UTC","PERIAPSIS":"546.187","SEMIMAJOR_AXIS":"6925.349","COUNTRY_CODE":"US","INCLINATION":"53.0531","MEAN_ANOMALY":"298.0984","FILE":"3397723","DECAY_DATE":null,"GP_ID":"201015593","CENTER_NAME":"EARTH","SITE":"AFETR","REF_FRAME":"TEME","TLE_LINE1":"1 45093U 20006BB  22101.67070383  .00002518  00000-0  18790-3 0  9993","MEAN_MOTION_DOT":"0.00002518","CLASSIFICATION_TYPE":"U","OBJECT_NAME":"STARLINK-1142","RCS_SIZE":"LARGE","REV_AT_EPOCH":"12178","LAUNCH_DATE":"2020-01-29","TLE_LINE2":"2 45093  53.0531 177.2483 0001483  62.0155 298.0984 15.06399715121782","APOAPSIS":"548.241","ECCENTRICITY":"0.00014830","MEAN_MOTION":"15.06399715","OBJECT_ID":"2020-006BB","ARG_OF_PERICENTER":"62.0155","PERIOD":"95.592","MEAN_ELEMENT_THEORY":"SGP4","EPOCH":"2022-04-11T16:05:48.810912"},{"EPOCH":"2022-04-11T16:27:02.507616","ARG_OF_PERICENTER":"59.1769","OBJECT_ID":"2020-006BC","MEAN_ELEMENT_THEORY":"SGP4","PERIOD":"95.592","MEAN_MOTION":"15.06409557","APOAPSIS":"548.194","ECCENTRICITY":"0.00014580","TLE_LINE2":"2 45094  53.0531 177.1810 0001458  59.1769 300.9363 15.06409557121797","LAUNCH_DATE":"2020-01-29","REV_AT_EPOCH":"12179","OBJECT_NAME":"STARLINK-1146","RCS_SIZE":"LARGE","MEAN_MOTION_DOT":"0.00003690","CLASSIFICATION_TYPE":"U","TLE_LINE1":"1 45094U 20006BC  22101.68544569  .00003690  00000-0  26645-3 0  9997","SITE":"AFETR","REF_FRAME":"TEME","CENTER_NAME":"EARTH","GP_ID":"201014341","FILE":"3397723","DECAY_DATE":null,"COUNTRY_CODE":"US","MEAN_ANOMALY":"300.9363","INCLINATION":"53.0531","SEMIMAJOR_AXIS":"6925.319","PERIAPSIS":"546.175","NORAD_CAT_ID":"45094","MEAN_MOTION_DDOT":"0.0000000000000","ELEMENT_SET_NO":"999","TIME_SYSTEM":"UTC","BSTAR":"0.00026645000000","OBJECT_TYPE":"PAYLOAD","EPHEMERIS_TYPE":"0","RA_OF_ASC_NODE":"177.1810"}];
